CSS (TIANHE)            
1 48274U 21035A   23306.54086336  .00038282  00000+0  44895-3 0  9990
2 48274  41.4726  33.5764 0003719  22.7334 337.3669 15.60747342143464
